{
  "type": "FeatureCollection",
  "features": [
    {
      "type": "Feature",
      "properties": {
        "norad_id": 33791,
        "name": "COSMOS 2251 DEB",
        "group": "cosmos-2251-debris",
        "lat": 55.71102910036253,
        "lon": 40.829634740552045,
        "alt_km": 761.2583659134616,
        "timestamp": "2025-12-24T07:45:06.591261+00:00",
        "meta_object_name": "COSMOS 2251 DEB",
        "meta_object_id": "1993-036AG",
        "meta_epoch": "2025-12-23T18:59:47.733216",
        "meta_mean_motion": 14.43180537,
        "meta_eccentricity": 0.00301181,
        "meta_inclination": 74.1745,
        "meta_ra_of_asc_node": 17.2277,
        "meta_arg_of_pericenter": 212.2489,
        "meta_mean_anomaly": 327.0597,
        "meta_ephemeris_type": 0,
        "meta_classification_type": "U",
        "meta_norad_cat_id": 33791,
        "meta_element_set_no": 999,
        "meta_rev_at_epoch": 88211,
        "meta_bstar": 0.00085197062,
        "meta_mean_motion_dot": 2.854e-05,
        "meta_mean_motion_ddot": 0,
        "tle_line1": "1 33791U 93036AG  25357.79152469  .00002854  00000+0  85197-3 0  9990",
        "tle_line2": "2 33791  74.1745  17.2277 0030118 212.2489 327.0597 14.43180537882119"
      },
      "geometry": {
        "type": "Point",
        "coordinates": [
          40.829634740552045,
          55.71102910036253
        ]
      }
    },
    {
      "type": "Feature",
      "properties": {
        "norad_id": 33792,
        "name": "COSMOS 2251 DEB",
        "group": "cosmos-2251-debris",
        "lat": 11.932554773595802,
        "lon": -29.65500254834247,
        "alt_km": 781.6203440254721,
        "timestamp": "2025-12-24T07:45:06.591271+00:00",
        "meta_object_name": "COSMOS 2251 DEB",
        "meta_object_id": "1993-036AH",
        "meta_epoch": "2025-12-23T23:03:54.865152",
        "meta_mean_motion": 13.45844162,
        "meta_eccentricity": 0.04277482,
        "meta_inclination": 73.9013,
        "meta_ra_of_asc_node": 327.424,
        "meta_arg_of_pericenter": 30.0265,
        "meta_mean_anomaly": 30.9095,
        "meta_ephemeris_type": 0,
        "meta_classification_type": "U",
        "meta_norad_cat_id": 33792,
        "meta_element_set_no": 999,
        "meta_rev_at_epoch": 82593,
        "meta_bstar": 0.0010799406,
        "meta_mean_motion_dot": 1.101e-05,
        "meta_mean_motion_ddot": 0,
        "tle_line1": "1 33792U 93036AH  25357.96105168  .00001101  00000+0  10799-2 0  9993",
        "tle_line2": "2 33792  73.9013 327.4240 0427748  30.0265  30.9095 13.45844162825930"
      },
      "geometry": {
        "type": "Point",
        "coordinates": [
          -29.65500254834247,
          11.932554773595802
        ]
      }
    },
    {
      "type": "Feature",
      "properties": {
        "norad_id": 33793,
        "name": "COSMOS 2251 DEB",
        "group": "cosmos-2251-debris",
        "lat": 21.440373334217583,
        "lon": 135.3435490398849,
        "alt_km": 813.6589179009361,
        "timestamp": "2025-12-24T07:45:06.591282+00:00",
        "meta_object_name": "COSMOS 2251 DEB",
        "meta_object_id": "1993-036AJ",
        "meta_epoch": "2025-12-23T11:47:32.854272",
        "meta_mean_motion": 14.27757875,
        "meta_eccentricity": 0.0078877,
        "meta_inclination": 73.9807,
        "meta_ra_of_asc_node": 130.3765,
        "meta_arg_of_pericenter": 278.3781,
        "meta_mean_anomaly": 150.3286,
        "meta_ephemeris_type": 0,
        "meta_classification_type": "U",
        "meta_norad_cat_id": 33793,
        "meta_element_set_no": 999,
        "meta_rev_at_epoch": 87360,
        "meta_bstar": 0.00066830849,
        "meta_mean_motion_dot": 1.679e-05,
        "meta_mean_motion_ddot": 0,
        "tle_line1": "1 33793U 93036AJ  25357.49135248  .00001679  00000+0  66831-3 0  9993",
        "tle_line2": "2 33793  73.9807 130.3765 0078877 278.3781 150.3286 14.27757875873601"
      },
      "geometry": {
        "type": "Point",
        "coordinates": [
          135.3435490398849,
          21.440373334217583
        ]
      }
    },
    {
      "type": "Feature",
      "properties": {
        "norad_id": 33795,
        "name": "COSMOS 2251 DEB",
        "group": "cosmos-2251-debris",
        "lat": -23.481416268659952,
        "lon": 45.83504509942122,
        "alt_km": 573.2349522077993,
        "timestamp": "2025-12-24T07:45:06.591292+00:00",
        "meta_object_name": "COSMOS 2251 DEB",
        "meta_object_id": "1993-036AL",
        "meta_epoch": "2025-12-23T21:29:12.170400",
        "meta_mean_motion": 15.05873071,
        "meta_eccentricity": 0.00303588,
        "meta_inclination": 74.032,
        "meta_ra_of_asc_node": 53.8578,
        "meta_arg_of_pericenter": 133.1241,
        "meta_mean_anomaly": 44.9304,
        "meta_ephemeris_type": 0,
        "meta_classification_type": "U",
        "meta_norad_cat_id": 33795,
        "meta_element_set_no": 999,
        "meta_rev_at_epoch": 90189,
        "meta_bstar": 0.0010803776,
        "meta_mean_motion_dot": 0.00015854,
        "meta_mean_motion_ddot": 0,
        "tle_line1": "1 33795U 93036AL  25357.89527975  .00015854  00000+0  10804-2 0  9999",
        "tle_line2": "2 33795  74.0320  53.8578 0030358 133.1241  44.9304 15.05873071901893"
      },
      "geometry": {
        "type": "Point",
        "coordinates": [
          45.83504509942122,
          -23.481416268659952
        ]
      }
    },
    {
      "type": "Feature",
      "properties": {
        "norad_id": 33797,
        "name": "COSMOS 2251 DEB",
        "group": "cosmos-2251-debris",
        "lat": -36.5024455073113,
        "lon": 0.7231042996582295,
        "alt_km": 736.3355204044092,
        "timestamp": "2025-12-24T07:45:06.591302+00:00",
        "meta_object_name": "COSMOS 2251 DEB",
        "meta_object_id": "1993-036AN",
        "meta_epoch": "2025-12-23T19:32:11.823936",
        "meta_mean_motion": 14.5788449,
        "meta_eccentricity": 0.00603767,
        "meta_inclination": 74.0464,
        "meta_ra_of_asc_node": 13.9115,
        "meta_arg_of_pericenter": 98.4304,
        "meta_mean_anomaly": 73.7711,
        "meta_ephemeris_type": 0,
        "meta_classification_type": "U",
        "meta_norad_cat_id": 33797,
        "meta_element_set_no": 999,
        "meta_rev_at_epoch": 89146,
        "meta_bstar": 0.00033763528,
        "meta_mean_motion_dot": 1.557e-05,
        "meta_mean_motion_ddot": 0,
        "tle_line1": "1 33797U 93036AN  25357.81402574  .00001557  00000+0  33764-3 0  9996",
        "tle_line2": "2 33797  74.0464  13.9115 0060376  98.4304  73.7711 14.57884490891460"
      },
      "geometry": {
        "type": "Point",
        "coordinates": [
          0.7231042996582295,
          -36.5024455073113
        ]
      }
    },
    {
      "type": "Feature",
      "properties": {
        "norad_id": 33798,
        "name": "COSMOS 2251 DEB",
        "group": "cosmos-2251-debris",
        "lat": 10.05679270927209,
        "lon": 117.24182591800974,
        "alt_km": 792.6021302749468,
        "timestamp": "2025-12-24T07:45:06.591313+00:00",
        "meta_object_name": "COSMOS 2251 DEB",
        "meta_object_id": "1993-036AP",
        "meta_epoch": "2025-12-23T19:07:24.081600",
        "meta_mean_motion": 14.44628038,
        "meta_eccentricity": 0.00923416,
        "meta_inclination": 74.0293,
        "meta_ra_of_asc_node": 115.3103,
        "meta_arg_of_pericenter": 234.2821,
        "meta_mean_anomaly": 280.166,
        "meta_ephemeris_type": 0,
        "meta_classification_type": "U",
        "meta_norad_cat_id": 33798,
        "meta_element_set_no": 999,
        "meta_rev_at_epoch": 88753,
        "meta_bstar": 0.0001761168,
        "meta_mean_motion_dot": 6.13e-06,
        "meta_mean_motion_ddot": 0,
        "tle_line1": "1 33798U 93036AP  25357.79680650  .00000613  00000+0  17612-3 0  9993",
        "tle_line2": "2 33798  74.0293 115.3103 0092341 234.2821 280.1660 14.44628038887536"
      },
      "geometry": {
        "type": "Point",
        "coordinates": [
          117.24182591800974,
          10.05679270927209
        ]
      }
    },
    {
      "type": "Feature",
      "properties": {
        "norad_id": 33799,
        "name": "COSMOS 2251 DEB",
        "group": "cosmos-2251-debris",
        "lat": -73.43291276131642,
        "lon": -15.285204159021124,
        "alt_km": 650.4028842616235,
        "timestamp": "2025-12-24T07:45:06.591323+00:00",
        "meta_object_name": "COSMOS 2251 DEB",
        "meta_object_id": "1993-036AQ",
        "meta_epoch": "2025-12-22T10:46:25.690944",
        "meta_mean_motion": 14.79744929,
        "meta_eccentricity": 0.00224679,
        "meta_inclination": 74.0318,
        "meta_ra_of_asc_node": 62.6676,
        "meta_arg_of_pericenter": 129.9441,
        "meta_mean_anomaly": 245.0155,
        "meta_ephemeris_type": 0,
        "meta_classification_type": "U",
        "meta_norad_cat_id": 33799,
        "meta_element_set_no": 999,
        "meta_rev_at_epoch": 88955,
        "meta_bstar": 0.0013396152,
        "meta_mean_motion_dot": 0.00010098,
        "meta_mean_motion_ddot": 0,
        "tle_line1": "1 33799U 93036AQ  25356.44890846  .00010098  00000+0  13396-2 0  9997",
        "tle_line2": "2 33799  74.0318  62.6676 0022467 129.9441 245.0155 14.79744929889553"
      },
      "geometry": {
        "type": "Point",
        "coordinates": [
          -15.285204159021124,
          -73.43291276131642
        ]
      }
    }
  ]
}